1 25544U 98067A   24014.23659323  .00014338  00000-0  26444-3 0  9996
2 25544  51.6428   3.1154 0004916  89.2408  12.3067 15.49370626434523
